name,source,collection_date,satellite_number,classification,launch_year,launch_number,launch_piece,epoch_year,epoch_day,inclination_deg,right_ascension_deg,eccentricity,argument_of_perigee_deg,mean_anomaly_deg,mean_motion,orbital_period_minutes,approximate_altitude_km,mean_motion_derivative,mean_motion_second_derivative,drag_term,element_set_number,revolution_number,line1,line2,category
STARLINK-31430,celestrak_active,2025-07-29T17:08:40.702217,59375,U,2024,62,B,2025,210.45125617,53.1581,215.3557,0.0001089,82.8774,277.235,15.30186249,94.10619138298112,0,-2.471e-05,0.0,-0.00071365,999,7545,1 59375U 24062B   25210.45125617 -.00002471  00000+0 -71365-4 0  9995,2 59375  53.1581 215.3557 0001089  82.8774 277.2350 15.30186249 75452,important
STARLINK-31695,celestrak_active,2025-07-29T17:08:40.702222,59376,U,2024,62,C,2025,210.39374831,53.1595,212.8648,0.0001388,70.6625,289.4526,15.30175517,94.10685140376613,0,-2.927e-05,0.0,-0.00086801,999,7544,1 59376U 24062C   25210.39374831 -.00002927  00000+0 -86801-4 0  9990,2 59376  53.1595 212.8648 0001388  70.6625 289.4526 15.30175517 75448,important
STARLINK-31716,celestrak_active,2025-07-29T17:08:40.702228,59377,U,2024,62,D,2025,210.29517788,53.1583,164.6659,0.0001236,85.1157,274.9985,15.30198095,94.10546286165648,0,1.8e-06,0.0,0.00018202000000000002,999,7610,1 59377U 24062D   25210.29517788  .00000180  00000+0  18202-4 0  9997,2 59377  53.1583 164.6659 0001236  85.1157 274.9985 15.30198095 76103,important
STARLINK-31710,celestrak_active,2025-07-29T17:08:40.702233,59378,U,2024,62,E,2025,210.27364924,53.1587,213.5338,0.0001221,94.3956,265.7184,15.30193329,94.1057559662123,0,8.12e-06,0.0,0.00039537000000000003,999,7542,1 59378U 24062E   25210.27364924  .00000812  00000+0  39537-4 0  9994,2 59378  53.1587 213.5338 0001221  94.3956 265.7184 15.30193329 75427,important
STARLINK-31698,celestrak_active,2025-07-29T17:08:40.702239,59379,U,2024,62,F,2025,210.32524994,53.1589,213.1604,0.0001318,90.1554,269.9598,15.3018969,94.10597976254827,0,-4e-08,0.0,0.00012010000000000002,999,7543,1 59379U 24062F   25210.32524994 -.00000004  00000+0  12010-4 0  9997,2 59379  53.1589 213.1604 0001318  90.1554 269.9598 15.30189690 75439,important
STARLINK-31680,celestrak_active,2025-07-29T17:08:40.702244,59380,U,2024,62,G,2025,210.39225906,53.1584,215.6945,0.0001189,96.5045,263.6091,15.30191155,94.10588966579147,0,1.48e-06,0.0,0.00017141000000000001,999,7540,1 59380U 24062G   25210.39225906  .00000148  00000+0  17141-4 0  9995,2 59380  53.1584 215.6945 0001189  96.5045 263.6091 15.30191155 75407,important
STARLINK-31713,celestrak_active,2025-07-29T17:08:40.702250,59381,U,2024,62,H,2025,210.31428221,53.1584,215.9211,0.0001355,97.453,262.6625,15.30161576,94.10770879270856,0,0.00010885,0.0,0.0037954,999,7539,1 59381U 24062H   25210.31428221  .00010885  00000+0  37954-3 0  9995,2 59381  53.1584 215.9211 0001355  97.4530 262.6625 15.30161576 75395,important
STARLINK-31705,celestrak_active,2025-07-29T17:08:40.702255,59382,U,2024,62,J,2025,210.40111636,53.1586,212.9081,0.0001207,89.6758,270.4381,15.30174998,94.1068833226355,0,-1.081e-05,0.0,-0.00024414,999,7544,1 59382U 24062J   25210.40111636 -.00001081  00000+0 -24414-4 0  9993,2 59382  53.1586 212.9081 0001207  89.6758 270.4381 15.30174998 75445,important
STARLINK-31715,celestrak_active,2025-07-29T17:08:40.702260,59384,U,2024,62,L,2025,210.38422928,53.1584,212.8055,0.0001232,87.6719,272.4422,15.30191597,94.10586248304956,0,9.5e-06,0.0,0.00044208999999999996,999,7548,1 59384U 24062L   25210.38422928  .00000950  00000+0  44209-4 0  9997,2 59384  53.1584 212.8055 0001232  87.6719 272.4422 15.30191597 75484,important
STARLINK-31717,celestrak_active,2025-07-29T17:08:40.702266,59385,U,2024,62,M,2025,210.27998156,53.1587,213.5718,0.0001269,86.6147,273.4999,15.30191915,94.10584292624497,0,3.2e-06,0.0,0.00022939,999,7545,1 59385U 24062M   25210.27998156  .00000320  00000+0  22939-4 0  9994,2 59385  53.1587 213.5718 0001269  86.6147 273.4999 15.30191915 75457,important
STARLINK-31688,celestrak_active,2025-07-29T17:08:40.702271,59386,U,2024,62,N,2025,210.31111739,53.1566,215.9015,0.0001215,91.2293,268.8847,15.30194336,94.10569403649917,0,5.934e-05,0.0,0.0021236000000000002,999,7539,1 59386U 24062N   25210.31111739  .00005934  00000+0  21236-3 0  9998,2 59386  53.1566 215.9015 0001215  91.2293 268.8847 15.30194336 75399,important
STARLINK-31714,celestrak_active,2025-07-29T17:08:40.702278,59387,U,2024,62,P,2025,210.41377049,53.1592,212.9871,0.000125,88.6078,271.5066,15.30199871,94.10535363977952,0,8.44e-06,0.0,0.00040633,999,7543,1 59387U 24062P   25210.41377049  .00000844  00000+0  40633-4 0  9996,2 59387  53.1592 212.9871 0001250  88.6078 271.5066 15.30199871 75434,important
STARLINK-31643,celestrak_active,2025-07-29T17:08:40.702284,59388,U,2024,62,Q,2025,210.27681574,53.1591,213.5526,0.0001297,93.3358,266.7791,15.30190882,94.10590645513989,0,4.56e-06,0.0,0.00027545000000000005,999,7546,1 59388U 24062Q   25210.27681574  .00000456  00000+0  27545-4 0  9998,2 59388  53.1591 213.5526 0001297  93.3358 266.7791 15.30190882 75460,important
STARLINK-31647,celestrak_active,2025-07-29T17:08:40.702292,59389,U,2024,62,R,2025,210.44319319,53.1584,213.1989,0.0001276,82.3215,277.7931,15.32307046,93.97594325230297,0,9.691e-05,0.0,0.0031762,999,7548,1 59389U 24062R   25210.44319319  .00009691  00000+0  31762-3 0  9998,2 59389  53.1584 213.1989 0001276  82.3215 277.7931 15.32307046 75483,important
STARLINK-31649,celestrak_active,2025-07-29T17:08:40.702298,59390,U,2024,62,S,2025,210.39689198,53.1586,212.8804,0.0001189,80.404,279.7095,15.30185021,94.10626690483072,0,1.363e-05,0.0,0.00058158,999,7548,1 59390U 24062S   25210.39689198  .00001363  00000+0  58158-4 0  9996,2 59390  53.1586 212.8804 0001189  80.4040 279.7095 15.30185021 75485,important
STARLINK-31644,celestrak_active,2025-07-29T17:08:40.702303,59391,U,2024,62,T,2025,210.30794767,53.1588,215.8819,0.0001093,75.3,284.8122,15.30194996,94.10565344705911,0,-1.4e-07,0.0,0.00011665000000000002,999,7543,1 59391U 24062T   25210.30794767 -.00000014  00000+0  11665-4 0  9992,2 59391  53.1588 215.8819 0001093  75.3000 284.8122 15.30194996 75434,important
STARLINK-31626,celestrak_active,2025-07-29T17:08:40.702309,59392,U,2024,62,U,2025,210.38106141,53.1582,212.7819,0.0001059,94.0385,266.0737,15.30194566,94.10567989169033,0,2.7e-07,0.0,0.00013034,999,7548,1 59392U 24062U   25210.38106141  .00000027  00000+0  13034-4 0  9999,2 59392  53.1582 212.7819 0001059  94.0385 266.0737 15.30194566 75483,important
STARLINK-31443,celestrak_active,2025-07-29T17:08:40.702314,59393,U,2024,62,V,2025,210.36582258,53.159,200.4309,0.0001288,89.453,270.6618,15.30193532,94.10574348186435,0,-2.22e-06,0.0,4.622e-05,999,7565,1 59393U 24062V   25210.36582258 -.00000222  00000+0  46220-5 0  9997,2 59393  53.1590 200.4309 0001288  89.4530 270.6618 15.30193532 75655,important
STARLINK-31607,celestrak_active,2025-07-29T17:08:40.702319,59394,U,2024,62,W,2025,210.38739511,53.1587,212.8206,0.0001246,92.8295,267.2848,15.30191782,94.10585110566225,0,-4.87e-06,0.0,-4.3167e-05,999,7547,1 59394U 24062W   25210.38739511 -.00000487  00000+0 -43167-5 0  9997,2 59394  53.1587 212.8206 0001246  92.8295 267.2848 15.30191782 75477,important
STARLINK-31608,celestrak_active,2025-07-29T17:08:40.702332,59397,U,2024,62,X,2025,210.48226715,53.1588,212.7005,0.0001265,81.2388,278.8756,15.30182054,94.10644937546758,0,-8.78e-06,0.0,-0.00017521,999,7544,1 59397U 24062X   25210.48226715 -.00000878  00000+0 -17521-4 0  9996,2 59397  53.1588 212.7005 0001265  81.2388 278.8756 15.30182054 75448,important
STARLINK-31534,celestrak_active,2025-07-29T17:08:40.702338,59398,U,2024,64,A,2025,210.41808567,43.0005,236.7207,0.000136,273.4244,86.6452,15.27575736,94.26701184523135,0,1.285e-05,0.0,0.00056228,999,7502,1 59398U 24064A   25210.41808567  .00001285  00000+0  56228-4 0  9991,2 59398  43.0005 236.7207 0001360 273.4244  86.6452 15.27575736 75024,important
STARLINK-31544,celestrak_active,2025-07-29T17:08:40.702343,59399,U,2024,64,B,2025,210.40410082,43.0013,237.4788,0.0001206,258.8717,101.1999,15.27579728,94.2667654987367,0,1.83e-06,0.0,0.00016168,999,7507,1 59399U 24064B   25210.40410082  .00000183  00000+0  16168-4 0  9997,2 59399  43.0013 237.4788 0001206 258.8717 101.1999 15.27579728 75076,important
STARLINK-31545,celestrak_active,2025-07-29T17:08:40.702349,59400,U,2024,64,C,2025,210.36427775,43.0003,237.1731,0.0001017,303.9621,56.1134,15.27572319,94.26722270947356,0,-1.624e-05,0.0,-0.00049532,999,7507,1 59400U 24064C   25210.36427775 -.00001624  00000+0 -49532-4 0  9996,2 59400  43.0003 237.1731 0001017 303.9621  56.1134 15.27572319 75078,important
STARLINK-31507,celestrak_active,2025-07-29T17:08:40.702354,59401,U,2024,64,D,2025,210.37068726,42.9997,237.2168,0.0001249,278.39,81.681,15.27581953,94.26662819444817,0,6.95e-06,0.0,0.00034771000000000004,999,7501,1 59401U 24064D   25210.37068726  .00000695  00000+0  34771-4 0  9999,2 59401  42.9997 237.2168 0001249 278.3900  81.6810 15.27581953 75018,important
STARLINK-31543,celestrak_active,2025-07-29T17:08:40.702360,59402,U,2024,64,E,2025,210.52716726,43.0027,236.6805,0.00014,284.5872,75.4824,15.27579094,94.26680462281844,0,-2.59e-06,0.0,1.2029e-06,999,7509,1 59402U 24064E   25210.52716726 -.00000259  00000+0  12029-6 0  9998,2 59402  43.0027 236.6805 0001400 284.5872  75.4824 15.27579094 75099,important
STARLINK-31366,celestrak_active,2025-07-29T17:08:40.702366,59403,U,2024,64,F,2025,210.44765707,43.0014,236.9363,0.0001058,284.6298,75.4436,15.27567201,94.26753854477398,0,-3.37e-05,0.0,-0.0011304000000000002,999,7508,1 59403U 24064F   25210.44765707 -.00003370  00000+0 -11304-3 0  9993,2 59403  43.0014 236.9363 0001058 284.6298  75.4436 15.27567201 75085,important
